NORAD_CAT_ID,OBJECT_NAME,OBJECT_TYPE,EPOCH,MEAN_MOTION,ECCENTRICITY,INCLINATION,RA_OF_ASC_NODE,ARG_OF_PERICENTER,MEAN_ANOMALY,BSTAR,MEAN_MOTION_DOT,MEAN_MOTION_DDOT,TLE_LINE0,TLE_LINE1,TLE_LINE2,SEMIMAJOR_AXIS,PERIOD,APOGEE,PERIGEE,DECAYED
52543.0,STARLINK-3926,PAYLOAD,2023-02-20 12:39:16,15.08857896,0.0001188,53.216,86.3005,86.9565,273.1563,0.00034261,5.172e-05,0.0,0 STARLINK-3926,1 52543U 22051L   23051.52727814  .00005172  00000-0  34261-3 0  9990,2 52543  53.2160  86.3005 0001188  86.9565 273.1563 15.08857896 43390,6917.826,95.436,540.513,538.869,0.0
52543.0,STARLINK-3926,PAYLOAD,2023-02-20 19:00:49,15.08842881,0.0001172,53.2156,85.1105,101.6089,258.5034,-1.6018e-05,-5.43e-06,0.0,0 STARLINK-3926,1 52543U 22051L   23051.79224154 -.00000543  00000-0 -16018-4 0  9998,2 52543  53.2156  85.1105 0001172 101.6089 258.5034 15.08842881 43503,6917.872,95.437,540.547,538.926,0.0
52543.0,STARLINK-3926,PAYLOAD,2023-02-21 09:19:18,15.08843844,0.0001309,53.216,82.4343,103.318,256.7958,0.00044408,6.787e-05,0.0,0 STARLINK-3926,1 52543U 22051L   23052.38840310  .00006787  00000-0  44408-3 0  9999,2 52543  53.2160  82.4343 0001309 103.3180 256.7958 15.08843844 43522,6917.869,95.437,540.639,538.828,0.0
52543.0,STARLINK-3926,PAYLOAD,2023-02-21 18:51:37,15.08840962,0.0001461,53.2153,80.6499,90.0501,270.0659,0.00048099,7.375e-05,0.0,0 STARLINK-3926,1 52543U 22051L   23052.78584538  .00007375  00000-0  48099-3 0  9994,2 52543  53.2153  80.6499 0001461  90.0501 270.0659 15.08840962 43585,6917.877,95.437,540.753,538.732,0.0
52543.0,STARLINK-3926,PAYLOAD,2023-02-22 01:13:09,15.08843969,0.0001225,53.2151,79.4616,91.6516,268.4617,0.00053263,8.2e-05,0.0,0 STARLINK-3926,1 52543U 22051L   23053.05080417  .00008200  00000-0  53263-3 0  9999,2 52543  53.2151  79.4616 0001225  91.6516 268.4617 15.08843969 43698,6917.868,95.437,540.581,538.886,0.0
52543.0,STARLINK-3926,PAYLOAD,2023-02-22 09:10:05,15.08847881,0.0001266,53.2152,77.9737,88.7883,271.3254,0.00051552,7.928e-05,0.0,0 STARLINK-3926,1 52543U 22051L   23053.38200338  .00007928  00000-0  51552-3 0  9996,2 52543  53.2152  77.9737 0001266  88.7883 271.3254 15.08847881 43670,6917.856,95.437,540.597,538.845,0.0
52543.0,STARLINK-3926,PAYLOAD,2023-02-22 18:42:24,15.08840153,0.0001294,53.2148,76.1891,85.9121,274.2019,0.00026367,3.911e-05,0.0,0 STARLINK-3926,1 52543U 22051L   23053.77944525  .00003911  00000-0  26367-3 0  9996,2 52543  53.2148  76.1891 0001294  85.9121 274.2019 15.08840153 43803,6917.88,95.438,540.64,538.85,0.0
52543.0,STARLINK-3926,PAYLOAD,2023-02-23 09:00:52,15.08839275,0.000152,53.2164,73.5111,89.618,270.4986,0.00014663,2.046e-05,0.0,0 STARLINK-3926,1 52543U 22051L   23054.37560847  .00002046  00000-0  14663-3 0  9998,2 52543  53.2164  73.5111 0001520  89.6180 270.4986 15.08839275 43821,6917.883,95.438,540.799,538.696,0.0
52543.0,STARLINK-3926,PAYLOAD,2023-02-23 18:33:11,15.08843545,0.0001546,53.2164,71.7292,85.1921,274.9248,0.00021714,3.17e-05,0.0,0 STARLINK-3926,1 52543U 22051L   23054.77304848  .00003170  00000-0  21714-3 0  9993,2 52543  53.2164  71.7292 0001546  85.1921 274.9248 15.08843545 43884,6917.87,95.437,540.804,538.665,0.0
52543.0,STARLINK-3926,PAYLOAD,2023-02-24 00:54:43,15.08846094,0.000163,53.2164,70.5397,84.6132,275.5046,0.00030841,4.625e-05,0.0,0 STARLINK-3926,1 52543U 22051L   23055.03800884  .00004625  00000-0  30841-3 0  9991,2 52543  53.2164  70.5397 0001630  84.6132 275.5046 15.08846094 43996,6917.862,95.437,540.854,538.599,0.0
52543.0,STARLINK-3926,PAYLOAD,2023-02-24 12:02:25,15.08857826,0.0001757,53.2166,68.4581,84.9395,275.1798,0.00054529,8.405e-05,0.0,0 STARLINK-3926,1 52543U 22051L   23055.50168386  .00008405  00000-0  54529-3 0  9996,2 52543  53.2166  68.4581 0001757  84.9395 275.1798 15.08857826 43998,6917.826,95.436,540.906,538.475,0.0
52543.0,STARLINK-3926,PAYLOAD,2023-02-24 18:23:58,15.0883203,0.0001845,53.2171,67.2669,83.4696,276.6506,-0.00016333,-2.886e-05,0.0,0 STARLINK-3926,1 52543U 22051L   23055.76665091 -.00002886  00000-0 -16333-3 0  9999,2 52543  53.2171  67.2669 0001845  83.4696 276.6506 15.08832030 44033,6917.905,95.438,541.046,538.493,0.0
52543.0,STARLINK-3926,PAYLOAD,2023-02-25 00:45:31,15.08832598,0.0001575,53.2172,66.0795,81.9434,278.1737,-4.8518e-05,-1.06e-05,0.0,0 STARLINK-3926,1 52543U 22051L   23056.03161278 -.00001060  00000-0 -48518-4 0  9992,2 52543  53.2172  66.0795 0001575  81.9434 278.1737 15.08832598 44148,6917.903,95.438,540.858,538.678,0.0
52543.0,STARLINK-3926,PAYLOAD,2023-02-25 07:07:03,15.08835181,0.0001531,53.2161,64.8893,83.5851,276.5315,3.6404e-05,2.91e-06,0.0,0 STARLINK-3926,1 52543U 22051L   23056.29657226  .00000291  00000-0  36404-4 0  9997,2 52543  53.2161  64.8893 0001531  83.5851 276.5315 15.08835181 44116,6917.895,95.438,540.819,538.701,0.0
52543.0,STARLINK-3926,PAYLOAD,2023-02-25 21:25:32,15.08844084,0.0001532,53.2162,62.2125,84.7947,275.322,0.00049009,7.521e-05,0.0,0 STARLINK-3926,1 52543U 22051L   23056.89273356  .00007521  00000-0  49009-3 0  9998,2 52543  53.2162  62.2125 0001532  84.7947 275.3220 15.08844084 44201,6917.868,95.437,540.793,538.673,0.0
52543.0,STARLINK-3926,PAYLOAD,2023-02-26 03:47:04,15.08852971,0.0001509,53.2164,61.023,83.648,276.4684,0.00093892,0.00014692,0.0,0 STARLINK-3926,1 52543U 22051L   23057.15769277  .00014692  00000-0  93892-3 0  9996,2 52543  53.2164  61.0230 0001509  83.6480 276.4684 15.08852971 44313,6917.841,95.437,540.75,538.662,0.0
52543.0,STARLINK-3926,PAYLOAD,2023-02-26 06:57:50,15.08860951,0.0001492,53.2164,60.4284,83.6515,276.4647,0.001099,0.00017256,0.0,0 STARLINK-3926,1 52543U 22051L   23057.29017047  .00017256  00000-0  10990-2 0  9998,2 52543  53.2164  60.4284 0001492  83.6515 276.4647 15.08860951 44265,6917.816,95.436,540.713,538.649,0.0
52543.0,STARLINK-3926,PAYLOAD,2023-02-26 19:40:55,15.08850902,0.0001739,53.2165,58.0497,98.9112,261.2077,0.00031154,4.675e-05,0.0,0 STARLINK-3926,1 52543U 22051L   23057.82008948  .00004675  00000-0  31154-3 0  9994,2 52543  53.2165  58.0497 0001739  98.9112 261.2077 15.08850902 44412,6917.847,95.437,540.915,538.509,0.0
52543.0,STARLINK-3926,PAYLOAD,2023-02-27 06:48:37,15.0886325,0.0001478,53.2167,55.968,96.0548,264.0612,0.00098734,0.0001547,0.0,0 STARLINK-3926,1 52543U 22051L   23058.28376652  .00015470  00000-0  98734-3 0  9997,2 52543  53.2167  55.9680 0001478  96.0548 264.0612 15.08863250 44412,6917.809,95.436,540.697,538.652,0.0
52543.0,STARLINK-3926,PAYLOAD,2023-02-27 16:20:55,15.08898988,0.0001388,53.2166,54.1834,96.8553,263.2597,0.0027895,0.00044459,0.0,0 STARLINK-3926,1 52543U 22051L   23058.68120114  .00044459  00000-0  27895-2 0  9999,2 52543  53.2166  54.1834 0001388  96.8553 263.2597 15.08898988 44540,6917.7,95.434,540.525,538.605,0.0
52543.0,STARLINK-3926,PAYLOAD,2023-02-28 06:39:23,15.0888983,0.0001715,53.2169,51.5101,111.4792,248.6383,0.0016077,0.00025426,0.0,0 STARLINK-3926,1 52543U 22051L   23059.27735169  .00025426  00000-0  16077-2 0  9990,2 52543  53.2169  51.5101 0001715 111.4792 248.6383 15.08889830 44630,6917.728,95.434,540.779,538.407,0.0
52543.0,STARLINK-3926,PAYLOAD,2023-02-28 16:11:41,15.08877334,6.88e-05,53.2159,49.7228,284.9979,75.0937,0.0008919,0.0001395,0.0,0 STARLINK-3926,1 52543U 22051L   23059.67478415  .00013950  00000-0  89190-3 0  9998,2 52543  53.2159  49.7228 0000688 284.9979  75.0937 15.08877334 44698,6917.766,95.435,540.107,539.155,0.0
52543.0,STARLINK-3926,PAYLOAD,2023-02-28 22:33:15,15.08790293,0.0001079,53.2164,48.5348,110.7003,249.4105,-0.0011241,-0.00018109,0.0,0 STARLINK-3926,1 52543U 22051L   23059.93976557 -.00018109  00000-0 -11241-2 0  9991,2 52543  53.2164  48.5348 0001079 110.7003 249.4105 15.08790293 44730,6918.032,95.441,540.644,539.151,0.0
52543.0,STARLINK-3926,PAYLOAD,2023-03-01 08:05:36,15.08779147,0.000101,53.2163,46.7498,91.4412,268.6696,0.0020309,0.00032128,0.0,0 STARLINK-3926,1 52543U 22051L   23060.33722411  .00032128  00000-0  20309-2 0  9995,2 52543  53.2163  46.7498 0001010  91.4412 268.6696 15.08779147 44798,6918.066,95.441,540.63,539.233,0.0
52543.0,STARLINK-3926,PAYLOAD,2023-03-01 11:16:22,15.08784815,0.0001021,53.2162,46.1554,92.8937,267.2172,0.0017925,0.00028312,0.0,0 STARLINK-3926,1 52543U 22051L   23060.46970911  .00028312  00000-0  17925-2 0  9999,2 52543  53.2162  46.1554 0001021  92.8937 267.2172 15.08784815 44740,6918.049,95.441,540.62,539.208,0.0
52543.0,STARLINK-3926,PAYLOAD,2023-03-02 03:10:14,15.08852595,9.6e-05,53.217,43.1799,90.3969,269.7133,0.0024937,0.00039636,0.0,0 STARLINK-3926,1 52543U 22051L   23061.13211325  .00039636  00000-0  24937-2 0  9993,2 52543  53.2170  43.1799 0000960  90.3969 269.7133 15.08852595 44910,6917.842,95.437,540.371,539.043,0.0
52543.0,STARLINK-3926,PAYLOAD,2023-03-02 15:53:19,15.08856434,0.0001274,53.2177,40.8003,94.0869,266.0269,0.00097282,0.00015235,0.0,0 STARLINK-3926,1 52543U 22051L   23061.66203032  .00015235  00000-0  97282-3 0  9990,2 52543  53.2177  40.8003 0001274  94.0869 266.0269 15.08856434 44925,6917.83,95.437,540.576,538.814,0.0
52543.0,STARLINK-3926,PAYLOAD,2023-03-03 07:47:09,15.08888544,0.0001128,53.2163,37.8255,105.6812,254.4305,0.0020249,0.00032128,0.0,0 STARLINK-3926,1 52543U 22051L   23062.32441733  .00032128  00000-0  20249-2 0  9994,2 52543  53.2163  37.8255 0001128 105.6812 254.4305 15.08888544 45098,6917.732,95.434,540.377,538.817,0.0
52543.0,STARLINK-3926,PAYLOAD,2023-03-03 15:44:05,15.0888787,0.0001352,53.2174,36.3437,76.0234,284.0908,0.0018856,0.00029888,0.0,0 STARLINK-3926,1 52543U 22051L   23062.65561572  .00029888  00000-0  18856-2 0  9994,2 52543  53.2174  36.3437 0001352  76.0234 284.0908 15.08887870 45149,6917.734,95.435,540.534,538.664,0.0
52543.0,STARLINK-3926,PAYLOAD,2023-03-04 07:37:55,15.0888726,0.0001668,53.2184,33.3652,98.3288,261.7894,0.0018049,0.00028591,0.0,0 STARLINK-3926,1 52543U 22051L   23063.31800254  .00028591  00000-0  18049-2 0  9995,2 52543  53.2184  33.3652 0001668  98.3288 261.7894 15.08887260 45242,6917.736,95.435,540.755,538.447,0.0
